<?xml version="1.0" encoding="UTF-8"?>
<ndm xmlns:xsi="http://www.w3.org/2001/XMLSchema-instance" xsi:noNamespaceSchemaLocation="https://sanaregistry.org/r/ndmxml_unqualified/ndmxml-2.0.0-master-2.0.xsd">
<omm id="CCSDS_OMM_VERS" version="2.0">
<header><CREATION_DATE/><ORIGINATOR/></header><body><segment><metadata><OBJECT_NAME>ORBCOMM FM20</OBJECT_NAME><OBJECT_ID>1998-046D</OBJECT_ID><CENTER_NAME>EARTH</CENTER_NAME><REF_FRAME>TEME</REF_FRAME><TIME_SYSTEM>UTC</TIME_SYSTEM><MEAN_ELEMENT_THEORY>SGP4</MEAN_ELEMENT_THEORY></metadata><data><meanElements><EPOCH>2024-08-14T15:18:49.726656</EPOCH><MEAN_MOTION>14.35598221</MEAN_MOTION><ECCENTRICITY>.0001731</ECCENTRICITY><INCLINATION>44.9923</INCLINATION><RA_OF_ASC_NODE>191.4412</RA_OF_ASC_NODE><ARG_OF_PERICENTER>311.5182</ARG_OF_PERICENTER><MEAN_ANOMALY>48.5516</MEAN_ANOMALY></meanElements><tleParameters><EPHEMERIS_TYPE>0</EPHEMERIS_TYPE><CLASSIFICATION_TYPE>U</CLASSIFICATION_TYPE><NORAD_CAT_ID>25416</NORAD_CAT_ID><ELEMENT_SET_NO>999</ELEMENT_SET_NO><REV_AT_EPOCH>36022</REV_AT_EPOCH><BSTAR>.1383E-2</BSTAR><MEAN_MOTION_DOT>.3883E-4</MEAN_MOTION_DOT><MEAN_MOTION_DDOT>0</MEAN_MOTION_DDOT></tleParameters></data></segment></body></omm>
<omm id="CCSDS_OMM_VERS" version="2.0">
<header><CREATION_DATE/><ORIGINATOR/></header><body><segment><metadata><OBJECT_NAME>ORBCOMM FM16</OBJECT_NAME><OBJECT_ID>1998-046E</OBJECT_ID><CENTER_NAME>EARTH</CENTER_NAME><REF_FRAME>TEME</REF_FRAME><TIME_SYSTEM>UTC</TIME_SYSTEM><MEAN_ELEMENT_THEORY>SGP4</MEAN_ELEMENT_THEORY></metadata><data><meanElements><EPOCH>2024-08-14T14:18:46.384416</EPOCH><MEAN_MOTION>14.36713296</MEAN_MOTION><ECCENTRICITY>.0002945</ECCENTRICITY><INCLINATION>44.9919</INCLINATION><RA_OF_ASC_NODE>186.6360</RA_OF_ASC_NODE><ARG_OF_PERICENTER>225.1653</ARG_OF_PERICENTER><MEAN_ANOMALY>134.8955</MEAN_ANOMALY></meanElements><tleParameters><EPHEMERIS_TYPE>0</EPHEMERIS_TYPE><CLASSIFICATION_TYPE>U</CLASSIFICATION_TYPE><NORAD_CAT_ID>25417</NORAD_CAT_ID><ELEMENT_SET_NO>999</ELEMENT_SET_NO><REV_AT_EPOCH>36012</REV_AT_EPOCH><BSTAR>.16391E-2</BSTAR><MEAN_MOTION_DOT>.4737E-4</MEAN_MOTION_DOT><MEAN_MOTION_DDOT>0</MEAN_MOTION_DDOT></tleParameters></data></segment></body></omm>
<omm id="CCSDS_OMM_VERS" version="2.0">
<header><CREATION_DATE/><ORIGINATOR/></header><body><segment><metadata><OBJECT_NAME>ORBCOMM FM15</OBJECT_NAME><OBJECT_ID>1998-046F</OBJECT_ID><CENTER_NAME>EARTH</CENTER_NAME><REF_FRAME>TEME</REF_FRAME><TIME_SYSTEM>UTC</TIME_SYSTEM><MEAN_ELEMENT_THEORY>SGP4</MEAN_ELEMENT_THEORY></metadata><data><meanElements><EPOCH>2024-08-14T05:23:03.014016</EPOCH><MEAN_MOTION>14.36415593</MEAN_MOTION><ECCENTRICITY>.0002802</ECCENTRICITY><INCLINATION>44.9951</INCLINATION><RA_OF_ASC_NODE>192.6907</RA_OF_ASC_NODE><ARG_OF_PERICENTER>231.2167</ARG_OF_PERICENTER><MEAN_ANOMALY>128.8430</MEAN_ANOMALY></meanElements><tleParameters><EPHEMERIS_TYPE>0</EPHEMERIS_TYPE><CLASSIFICATION_TYPE>U</CLASSIFICATION_TYPE><NORAD_CAT_ID>25418</NORAD_CAT_ID><ELEMENT_SET_NO>999</ELEMENT_SET_NO><REV_AT_EPOCH>36024</REV_AT_EPOCH><BSTAR>.21076E-2</BSTAR><MEAN_MOTION_DOT>.6095E-4</MEAN_MOTION_DOT><MEAN_MOTION_DDOT>0</MEAN_MOTION_DDOT></tleParameters></data></segment></body></omm>
<omm id="CCSDS_OMM_VERS" version="2.0">
<header><CREATION_DATE/><ORIGINATOR/></header><body><segment><metadata><OBJECT_NAME>ORBCOMM FM14</OBJECT_NAME><OBJECT_ID>1998-046G</OBJECT_ID><CENTER_NAME>EARTH</CENTER_NAME><REF_FRAME>TEME</REF_FRAME><TIME_SYSTEM>UTC</TIME_SYSTEM><MEAN_ELEMENT_THEORY>SGP4</MEAN_ELEMENT_THEORY></metadata><data><meanElements><EPOCH>2024-08-14T14:01:00.199776</EPOCH><MEAN_MOTION>14.36630485</MEAN_MOTION><ECCENTRICITY>.0001453</ECCENTRICITY><INCLINATION>44.9944</INCLINATION><RA_OF_ASC_NODE>189.9565</RA_OF_ASC_NODE><ARG_OF_PERICENTER>243.7807</ARG_OF_PERICENTER><MEAN_ANOMALY>116.2892</MEAN_ANOMALY></meanElements><tleParameters><EPHEMERIS_TYPE>0</EPHEMERIS_TYPE><CLASSIFICATION_TYPE>U</CLASSIFICATION_TYPE><NORAD_CAT_ID>25419</NORAD_CAT_ID><ELEMENT_SET_NO>999</ELEMENT_SET_NO><REV_AT_EPOCH>36008</REV_AT_EPOCH><BSTAR>.17053E-2</BSTAR><MEAN_MOTION_DOT>.4925E-4</MEAN_MOTION_DOT><MEAN_MOTION_DDOT>0</MEAN_MOTION_DDOT></tleParameters></data></segment></body></omm>
<omm id="CCSDS_OMM_VERS" version="2.0">
<header><CREATION_DATE/><ORIGINATOR/></header><body><segment><metadata><OBJECT_NAME>ORBCOMM FM13</OBJECT_NAME><OBJECT_ID>1998-046H</OBJECT_ID><CENTER_NAME>EARTH</CENTER_NAME><REF_FRAME>TEME</REF_FRAME><TIME_SYSTEM>UTC</TIME_SYSTEM><MEAN_ELEMENT_THEORY>SGP4</MEAN_ELEMENT_THEORY></metadata><data><meanElements><EPOCH>2024-08-14T14:40:02.733600</EPOCH><MEAN_MOTION>14.35821616</MEAN_MOTION><ECCENTRICITY>.0003276</ECCENTRICITY><INCLINATION>44.9952</INCLINATION><RA_OF_ASC_NODE>195.2713</RA_OF_ASC_NODE><ARG_OF_PERICENTER>199.7659</ARG_OF_PERICENTER><MEAN_ANOMALY>160.3062</MEAN_ANOMALY></meanElements><tleParameters><EPHEMERIS_TYPE>0</EPHEMERIS_TYPE><CLASSIFICATION_TYPE>U</CLASSIFICATION_TYPE><NORAD_CAT_ID>25420</NORAD_CAT_ID><ELEMENT_SET_NO>999</ELEMENT_SET_NO><REV_AT_EPOCH>35914</REV_AT_EPOCH><BSTAR>.14943E-2</BSTAR><MEAN_MOTION_DOT>.4227E-4</MEAN_MOTION_DOT><MEAN_MOTION_DDOT>0</MEAN_MOTION_DDOT></tleParameters></data></segment></body></omm>
<omm id="CCSDS_OMM_VERS" version="2.0">
<header><CREATION_DATE/><ORIGINATOR/></header><body><segment><metadata><OBJECT_NAME>ORBCOMM FM21</OBJECT_NAME><OBJECT_ID>1998-053A</OBJECT_ID><CENTER_NAME>EARTH</CENTER_NAME><REF_FRAME>TEME</REF_FRAME><TIME_SYSTEM>UTC</TIME_SYSTEM><MEAN_ELEMENT_THEORY>SGP4</MEAN_ELEMENT_THEORY></metadata><data><meanElements><EPOCH>2024-08-14T13:37:56.221248</EPOCH><MEAN_MOTION>14.35712667</MEAN_MOTION><ECCENTRICITY>.0002</ECCENTRICITY><INCLINATION>45.0077</INCLINATION><RA_OF_ASC_NODE>279.9494</RA_OF_ASC_NODE><ARG_OF_PERICENTER>248.3026</ARG_OF_PERICENTER><MEAN_ANOMALY>111.7608</MEAN_ANOMALY></meanElements><tleParameters><EPHEMERIS_TYPE>0</EPHEMERIS_TYPE><CLASSIFICATION_TYPE>U</CLASSIFICATION_TYPE><NORAD_CAT_ID>25475</NORAD_CAT_ID><ELEMENT_SET_NO>999</ELEMENT_SET_NO><REV_AT_EPOCH>35315</REV_AT_EPOCH><BSTAR>.12617E-2</BSTAR><MEAN_MOTION_DOT>.3538E-4</MEAN_MOTION_DOT><MEAN_MOTION_DDOT>0</MEAN_MOTION_DDOT></tleParameters></data></segment></body></omm>
<omm id="CCSDS_OMM_VERS" version="2.0">
<header><CREATION_DATE/><ORIGINATOR/></header><body><segment><metadata><OBJECT_NAME>ORBCOMM FM22</OBJECT_NAME><OBJECT_ID>1998-053B</OBJECT_ID><CENTER_NAME>EARTH</CENTER_NAME><REF_FRAME>TEME</REF_FRAME><TIME_SYSTEM>UTC</TIME_SYSTEM><MEAN_ELEMENT_THEORY>SGP4</MEAN_ELEMENT_THEORY></metadata><data><meanElements><EPOCH>2024-08-14T12:11:10.846752</EPOCH><MEAN_MOTION>14.36313653</MEAN_MOTION><ECCENTRICITY>.0001387</ECCENTRICITY><INCLINATION>45.0074</INCLINATION><RA_OF_ASC_NODE>277.0993</RA_OF_ASC_NODE><ARG_OF_PERICENTER>200.8631</ARG_OF_PERICENTER><MEAN_ANOMALY>159.2160</MEAN_ANOMALY></meanElements><tleParameters><EPHEMERIS_TYPE>0</EPHEMERIS_TYPE><CLASSIFICATION_TYPE>U</CLASSIFICATION_TYPE><NORAD_CAT_ID>25476</NORAD_CAT_ID><ELEMENT_SET_NO>999</ELEMENT_SET_NO><REV_AT_EPOCH>35314</REV_AT_EPOCH><BSTAR>.12303E-2</BSTAR><MEAN_MOTION_DOT>.349E-4</MEAN_MOTION_DOT><MEAN_MOTION_DDOT>0</MEAN_MOTION_DDOT></tleParameters></data></segment></body></omm>
<omm id="CCSDS_OMM_VERS" version="2.0">
<header><CREATION_DATE/><ORIGINATOR/></header><body><segment><metadata><OBJECT_NAME>ORBCOMM FM23</OBJECT_NAME><OBJECT_ID>1998-053C</OBJECT_ID><CENTER_NAME>EARTH</CENTER_NAME><REF_FRAME>TEME</REF_FRAME><TIME_SYSTEM>UTC</TIME_SYSTEM><MEAN_ELEMENT_THEORY>SGP4</MEAN_ELEMENT_THEORY></metadata><data><meanElements><EPOCH>2024-08-14T12:33:48.754080</EPOCH><MEAN_MOTION>14.35749897</MEAN_MOTION><ECCENTRICITY>.0001498</ECCENTRICITY><INCLINATION>45.0081</INCLINATION><RA_OF_ASC_NODE>282.5517</RA_OF_ASC_NODE><ARG_OF_PERICENTER>220.2494</ARG_OF_PERICENTER><MEAN_ANOMALY>139.8242</MEAN_ANOMALY></meanElements><tleParameters><EPHEMERIS_TYPE>0</EPHEMERIS_TYPE><CLASSIFICATION_TYPE>U</CLASSIFICATION_TYPE><NORAD_CAT_ID>25477</NORAD_CAT_ID><ELEMENT_SET_NO>999</ELEMENT_SET_NO><REV_AT_EPOCH>35329</REV_AT_EPOCH><BSTAR>.11403E-2</BSTAR><MEAN_MOTION_DOT>.3186E-4</MEAN_MOTION_DOT><MEAN_MOTION_DDOT>0</MEAN_MOTION_DDOT></tleParameters></data></segment></body></omm>

</ndm>
