ORBCOMM FM20            
1 25416U 98046D   24227.63807554  .00003883  00000+0  13830-2 0  9998
2 25416  44.9923 191.4412 0001731 311.5182  48.5516 14.35598221360228
ORBCOMM FM16            
1 25417U 98046E   24227.59637019  .00004737  00000+0  16391-2 0  9995
2 25417  44.9919 186.6360 0002945 225.1653 134.8955 14.36713296360120
ORBCOMM FM15            
1 25418U 98046F   24227.22434044  .00006095  00000+0  21076-2 0  9994
2 25418  44.9951 192.6907 0002802 231.2167 128.8430 14.36415593360244
ORBCOMM FM14            
1 25419U 98046G   24227.58403009  .00004925  00000+0  17053-2 0  9991
2 25419  44.9944 189.9565 0001453 243.7807 116.2892 14.36630485360080
ORBCOMM FM13            
1 25420U 98046H   24227.61114275  .00004227  00000+0  14943-2 0  9991
2 25420  44.9952 195.2713 0003276 199.7659 160.3062 14.35821616359147
ORBCOMM FM21            
1 25475U 98053A   24227.56801182  .00003538  00000+0  12617-2 0  9993
2 25475  45.0077 279.9494 0002000 248.3026 111.7608 14.35712667353152
ORBCOMM FM22            
1 25476U 98053B   24227.50776443  .00003490  00000+0  12303-2 0  9998
2 25476  45.0074 277.0993 0001387 200.8631 159.2160 14.36313653353147
ORBCOMM FM23            
1 25477U 98053C   24227.52348095  .00003186  00000+0  11403-2 0  9991
2 25477  45.0081 282.5517 0001498 220.2494 139.8242 14.35749897353298
